QIANFAN-17              
1 60395U 24140S   25202.82564030  .00000107  00000+0  14731-3 0  9999
2 60395  88.9856 314.2821 0013072 258.5307 101.4376 13.50958362 47851
QIANFAN-18              
1 60396U 24140T   25202.87920977  .00000093  00000+0  12579-3 0  9993
2 60396  88.9848 313.8214 0012757 238.4584 121.5322 13.50953813 48094
QIANFAN-19              
1 61552U 24185A   25202.59493594  .00000324  00000+0  16271-3 0  9996
2 61552  88.9822  94.4764 0009232  56.6203 303.5866 14.14106334 49292
QIANFAN-20              
1 61553U 24185B   25202.56745664  .00000296  00000+0  16377-3 0  9997
2 61553  88.9821  94.6577 0008472  83.2585 276.9563 14.08659354 49194
QIANFAN-21              
1 61554U 24185C   25202.89414058  .00000462  00000+0  20121-3 0  9991
2 61554  88.9735  93.8458 0012925 105.7348 254.5270 14.22348672 49521
QIANFAN-22              
1 61555U 24185D   25202.78930087  .00000228  00000+0  18625-3 0  9991
2 61555  88.9807  95.0344 0009109  76.3398 283.8787 13.86232050 49000
QIANFAN-23              
1 61556U 24185E   25202.63102427  .00000436  00000+0  21352-3 0  9997
2 61556  88.9814  94.3485 0010301  65.5430 294.6831 14.16075655 49358
QIANFAN-24              
1 61557U 24185F   25202.80746372  .00000522  00000+0  22300-3 0  9990
2 61557  88.9794  93.9690 0011734  54.3760 305.8523 14.23551708 49542
